{
  "norad_id": 53502,
  "name": "STARLINK-4435",
  "history": [
    {
      "epoch": "2026-04-10T12:00:02.000160Z",
      "apogee_km": 518.727708006988,
      "perigee_km": 516.3335322092862,
      "latitude_deg": -14.692567511378675,
      "longitude_deg": -153.94566814086147,
      "height_km": 523.7831954777306,
      "semi_major_axis_km": 6895.667620108136,
      "eccentricity": 0.0001736,
      "inclination_deg": 97.6027,
      "raan_deg": 222.801,
      "arg_perigee_deg": 81.314,
      "mean_anomaly_deg": 264.09,
      "mean_motion_rev_day": 15.16136427
    },
    {
      "epoch": "2026-04-11T20:00:01.000224Z",
      "apogee_km": 515.1877963862698,
      "perigee_km": 513.5611636769818,
      "latitude_deg": 58.855881682752106,
      "longitude_deg": 71.39700850564246,
      "height_km": 523.8041148974723,
      "semi_major_axis_km": 6892.511480031625,
      "eccentricity": 0.000118,
      "inclination_deg": 97.6029,
      "raan_deg": 224.1382,
      "arg_perigee_deg": 105.98,
      "mean_anomaly_deg": 313.632,
      "mean_motion_rev_day": 15.17177924
    },
    {
      "epoch": "2026-04-13T06:00:02.000160Z",
      "apogee_km": 515.3719628978015,
      "perigee_km": 512.4894245055875,
      "latitude_deg": -51.28740015222092,
      "longitude_deg": 104.57884539057353,
      "height_km": 534.96709803792,
      "semi_major_axis_km": 6892.067693701694,
      "eccentricity": 0.00020912,
      "inclination_deg": 97.6035,
      "raan_deg": 225.5648,
      "arg_perigee_deg": 93.0081,
      "mean_anomaly_deg": 138.6428,
      "mean_motion_rev_day": 15.17324465
    },
    {
      "epoch": "2026-04-14T20:00:01.999008Z",
      "apogee_km": 512.2347417228921,
      "perigee_km": 511.1544161313159,
      "latitude_deg": -56.22961166564241,
      "longitude_deg": -107.31311619043,
      "height_km": 534.0013018663849,
      "semi_major_axis_km": 6889.831578927104,
      "eccentricity": 7.84e-05,
      "inclination_deg": 97.6045,
      "raan_deg": 227.1521,
      "arg_perigee_deg": 86.2244,
      "mean_anomaly_deg": 150.5272,
      "mean_motion_rev_day": 15.18063203
    },
    {
      "epoch": "2026-04-15T20:00:01.999008Z",
      "apogee_km": 511.5733275504617,
      "perigee_km": 509.7243774276549,
      "latitude_deg": -60.581430487505095,
      "longitude_deg": 97.77811379005962,
      "height_km": 534.8802619085293,
      "semi_major_axis_km": 6888.785852489058,
      "eccentricity": 0.0001342,
      "inclination_deg": 97.6059,
      "raan_deg": 228.1548,
      "arg_perigee_deg": 96.9883,
      "mean_anomaly_deg": 201.7425,
      "mean_motion_rev_day": 15.18408882
    },
    {
      "epoch": "2026-04-16T05:45:32.582016Z",
      "apogee_km": 512.4652203339374,
      "perigee_km": 510.62429736797185,
      "latitude_deg": -6.102916289265287e-05,
      "longitude_deg": -62.20706574600172,
      "height_km": 515.0587801894461,
      "semi_major_axis_km": 6889.681758850954,
      "eccentricity": 0.0001336,
      "inclination_deg": 97.6049,
      "raan_deg": 228.5692,
      "arg_perigee_deg": 118.1146,
      "mean_anomaly_deg": 242.0222,
      "mean_motion_rev_day": 15.1811272
    },
    {
      "epoch": "2026-04-18T00:00:04.000320Z",
      "apogee_km": 509.505277928537,
      "perigee_km": 505.8333528527919,
      "latitude_deg": -74.92218591286169,
      "longitude_deg": 174.6691392358099,
      "height_km": 536.7164133438026,
      "semi_major_axis_km": 6885.806315390664,
      "eccentricity": 0.00026663,
      "inclination_deg": 97.6045,
      "raan_deg": 230.3392,
      "arg_perigee_deg": 90.2108,
      "mean_anomaly_deg": 166.5921,
      "mean_motion_rev_day": 15.19394528
    },
    {
      "epoch": "2026-04-18T20:00:01.000224Z",
      "apogee_km": 506.82127769175895,
      "perigee_km": 504.62807936098034,
      "latitude_deg": 47.48938830835259,
      "longitude_deg": -87.4458573682905,
      "height_km": 512.3919660900465,
      "semi_major_axis_km": 6883.861678526369,
      "eccentricity": 0.0001593,
      "inclination_deg": 97.6044,
      "raan_deg": 231.1769,
      "arg_perigee_deg": 86.7114,
      "mean_anomaly_deg": 45.3326,
      "mean_motion_rev_day": 15.20038399
    },
    {
      "epoch": "2026-04-19T20:00:01.999008Z",
      "apogee_km": 505.9779900511412,
      "perigee_km": 502.67578387817684,
      "latitude_deg": -21.381799499969873,
      "longitude_deg": -98.73602778904758,
      "height_km": 512.724331359957,
      "semi_major_axis_km": 6882.463886964659,
      "eccentricity": 0.0002399,
      "inclination_deg": 97.6048,
      "raan_deg": 232.1846,
      "arg_perigee_deg": 104.5219,
      "mean_anomaly_deg": 96.7908,
      "mean_motion_rev_day": 15.2050149
    },
    {
      "epoch": "2026-04-20T14:00:03.000384Z",
      "apogee_km": 504.885965977629,
      "perigee_km": 502.508429898925,
      "latitude_deg": -15.804689033342786,
      "longitude_deg": 176.41179890962272,
      "height_km": 510.6864826788973,
      "semi_major_axis_km": 6881.834197938277,
      "eccentricity": 0.00017274,
      "inclination_deg": 97.6039,
      "raan_deg": 232.9422,
      "arg_perigee_deg": 101.1214,
      "mean_anomaly_deg": 243.1637,
      "mean_motion_rev_day": 15.20710184
    },
    {
      "epoch": "2026-04-21T20:00:01.999008Z",
      "apogee_km": 502.35287078074634,
      "perigee_km": 499.5489545475439,
      "latitude_deg": -14.84861365495333,
      "longitude_deg": 86.30910546768766,
      "height_km": 507.7376119956666,
      "semi_major_axis_km": 6879.087912664145,
      "eccentricity": 0.0002038,
      "inclination_deg": 97.6037,
      "raan_deg": 234.204,
      "arg_perigee_deg": 100.8817,
      "mean_anomaly_deg": 244.3673,
      "mean_motion_rev_day": 15.21620927
    },
    {
      "epoch": "2026-04-22T20:00:03.000384Z",
      "apogee_km": 500.6466677793587,
      "perigee_km": 497.8283197118226,
      "latitude_deg": 60.06404856588857,
      "longitude_deg": 70.98380038029147,
      "height_km": 508.42577468461417,
      "semi_major_axis_km": 6877.37449374559,
      "eccentricity": 0.0002049,
      "inclination_deg": 97.603,
      "raan_deg": 235.2132,
      "arg_perigee_deg": 102.0773,
      "mean_anomaly_deg": 318.7927,
      "mean_motion_rev_day": 15.22189604
    },
    {
      "epoch": "2026-04-23T16:00:01.999584Z",
      "apogee_km": 500.1118418391352,
      "perigee_km": 497.1654185526204,
      "latitude_deg": -54.853401720524396,
      "longitude_deg": 155.20805290678246,
      "height_km": 521.2671766773096,
      "semi_major_axis_km": 6876.775630195877,
      "eccentricity": 0.00021423,
      "inclination_deg": 97.6037,
      "raan_deg": 236.0575,
      "arg_perigee_deg": 96.7118,
      "mean_anomaly_deg": 207.9653,
      "mean_motion_rev_day": 15.22388448
    },
    {
      "epoch": "2026-04-24T20:00:01.999008Z",
      "apogee_km": 497.6031875597073,
      "perigee_km": 494.9249209089776,
      "latitude_deg": -36.4987462069622,
      "longitude_deg": -101.26838229656317,
      "height_km": 510.79284703246276,
      "semi_major_axis_km": 6874.401054234342,
      "eccentricity": 0.0001948,
      "inclination_deg": 97.6033,
      "raan_deg": 237.2376,
      "arg_perigee_deg": 99.9053,
      "mean_anomaly_deg": 116.673,
      "mean_motion_rev_day": 15.23177318
    },
    {
      "epoch": "2026-04-25T20:00:01.000224Z",
      "apogee_km": 497.06678156246926,
      "perigee_km": 494.06847160435336,
      "latitude_deg": -62.440743761070465,
      "longitude_deg": 99.13677156434629,
      "height_km": 520.90539878011,
      "semi_major_axis_km": 6873.704626583411,
      "eccentricity": 0.0002181,
      "inclination_deg": 97.6033,
      "raan_deg": 238.2506,
      "arg_perigee_deg": 91.0091,
      "mean_anomaly_deg": 205.7828,
      "mean_motion_rev_day": 15.23408811
    },
    {
      "epoch": "2026-04-26T22:00:00.999936Z",
      "apogee_km": 495.82215814554365,
      "perigee_km": 493.05745794720224,
      "latitude_deg": 64.34284710365667,
      "longitude_deg": -109.53312408110597,
      "height_km": 504.4341685659394,
      "semi_major_axis_km": 6872.576808046373,
      "eccentricity": 0.00020114,
      "inclination_deg": 97.6026,
      "raan_deg": 239.3431,
      "arg_perigee_deg": 78.4746,
      "mean_anomaly_deg": 36.1881,
      "mean_motion_rev_day": 15.23783823
    },
    {
      "epoch": "2026-04-27T20:00:03.000384Z",
      "apogee_km": 494.2183835111282,
      "perigee_km": 491.77500836885247,
      "latitude_deg": 77.07921389989393,
      "longitude_deg": -60.18721763515712,
      "height_km": 504.87675784200184,
      "semi_major_axis_km": 6871.1336959399905,
      "eccentricity": 0.0001778,
      "inclination_deg": 97.6049,
      "raan_deg": 240.2778,
      "arg_perigee_deg": 87.3247,
      "mean_anomaly_deg": 13.2197,
      "mean_motion_rev_day": 15.24263898
    },
    {
      "epoch": "2026-04-28T20:00:01.000224Z",
      "apogee_km": 491.2156972470975,
      "perigee_km": 488.74866883654886,
      "latitude_deg": -5.672141827891872,
      "longitude_deg": -96.27533733005993,
      "height_km": 494.1411537841878,
      "semi_major_axis_km": 6868.119183041823,
      "eccentricity": 0.0001796,
      "inclination_deg": 97.602,
      "raan_deg": 241.2873,
      "arg_perigee_deg": 88.2959,
      "mean_anomaly_deg": 97.2466,
      "mean_motion_rev_day": 15.25267539
    },
    {
      "epoch": "2026-04-29T20:00:01.999008Z",
      "apogee_km": 489.54170110159066,
      "perigee_km": 487.18374509667774,
      "latitude_deg": -81.60427489478407,
      "longitude_deg": 148.62944158260925,
      "height_km": 517.7793366832972,
      "semi_major_axis_km": 6866.499723099134,
      "eccentricity": 0.0001717,
      "inclination_deg": 97.6052,
      "raan_deg": 242.3084,
      "arg_perigee_deg": 76.6947,
      "mean_anomaly_deg": 196.9964,
      "mean_motion_rev_day": 15.25807171
    }
  ]
}